[{"OBJECT_NAME":"FLOCK 4G-8","OBJECT_ID":"2025-009E","EPOCH":"2026-03-09T17:22:17.546016","MEAN_MOTION":15.27623414,"ECCENTRICITY":0.00030503,"INCLINATION":97.4045,"RA_OF_ASC_NODE":151.2834,"ARG_OF_PERICENTER":315.2538,"MEAN_ANOMALY":44.8455,"EPHEMERIS_TYPE":0,"CLASSIFICATION_TYPE":"U","NORAD_CAT_ID":62613,"ELEMENT_SET_NO":999,"REV_AT_EPOCH":6372,"BSTAR":0.0005043806,"MEAN_MOTION_DOT":0.00013559,"MEAN_MOTION_DDOT":0},{"OBJECT_NAME":"STARLINK-32930","OBJECT_ID":"2025-048W","EPOCH":"2026-03-09T01:34:33.903552","MEAN_MOTION":15.27604161,"ECCENTRICITY":0.0003608,"INCLINATION":43.0008,"RA_OF_ASC_NODE":89.1017,"ARG_OF_PERICENTER":284.5445,"MEAN_ANOMALY":75.5006,"EPHEMERIS_TYPE":0,"CLASSIFICATION_TYPE":"U","NORAD_CAT_ID":63203,"ELEMENT_SET_NO":999,"REV_AT_EPOCH":5699,"BSTAR":0.0015741537,"MEAN_MOTION_DOT":0.00043347,"MEAN_MOTION_DDOT":0}]
